[{"OBJECT_NAME":"COSMOS 2523","OBJECT_ID":"2017-037E","EPOCH":"2026-03-09T23:01:03.762912","MEAN_MOTION":14.95066265,"ECCENTRICITY":0.0066686,"INCLINATION":97.5062,"RA_OF_ASC_NODE":86.2978,"ARG_OF_PERICENTER":201.8356,"MEAN_ANOMALY":158.0021,"EPHEMERIS_TYPE":0,"CLASSIFICATION_TYPE":"U","NORAD_CAT_ID":42986,"ELEMENT_SET_NO":999,"REV_AT_EPOCH":45413,"BSTAR":0.00015362789,"MEAN_MOTION_DOT":1.699e-5,"MEAN_MOTION_DDOT":0},{"OBJECT_NAME":"STARLINK-4746","OBJECT_ID":"2022-114AE","EPOCH":"2026-03-09T21:13:32.541888","MEAN_MOTION":15.08838622,"ECCENTRICITY":0.00014362,"INCLINATION":53.2175,"RA_OF_ASC_NODE":293.0663,"ARG_OF_PERICENTER":75.7728,"MEAN_ANOMALY":284.3423,"EPHEMERIS_TYPE":0,"CLASSIFICATION_TYPE":"U","NORAD_CAT_ID":53846,"ELEMENT_SET_NO":999,"REV_AT_EPOCH":19300,"BSTAR":7.0400434e-5,"MEAN_MOTION_DOT":8.33e-6,"MEAN_MOTION_DDOT":0}]
